satname,norad_id,inclination_deg,eccentricity,mean_motion_rev_per_day,perigee_km,apogee_km,l1,l2
STARLINK-1482,45773,53.0552,0.0001241,15.06400558,546.3504122053664,548.0692832929781,1 45773U 20038AV  25364.65163729  .00000328  00000+0  40897-4 0  9992,2 45773  53.0552 146.5401 0001241  94.8460 265.2671 15.06400558306358
STARLINK-1496,45780,53.0535,0.0001074,15.35514982,458.6569336584289,460.125634733874,1 45780U 20038BC  25364.91670139  .01182161  00000+0  31101-1 0  9999,2 45780  53.0535 143.8213 0001074 120.3249 124.6604 15.35514982  5788
STARLINK-1497,45781,53.0323,0.000454,15.75594439,339.8887989927125,345.9915370612807,1 45781U 20038BD  25364.91670139  .00221179  00000+0  13873-2 0  9999,2 45781  53.0323  65.9127 0004540  13.5498 101.1039 15.75594439  5952
STARLINK-1510,45784,53.0175,0.0007232,16.09508756,243.39908512948477,252.98340630408893,1 45784U 20038BG  25364.65793865  .00859229  42098-3  91924-3 0  9999,2 45784  53.0175  33.6716 0007232  25.3377 334.8009 16.09508756307934
STARLINK-1513,45786,53.0556,0.0001499,15.06409637,546.1439167573108,548.22012740013,1 45786U 20038BJ  25364.78064169  .00004442  00000+0  31685-3 0  9993,2 45786  53.0556 145.9638 0001499  89.3092 270.8068 15.06409637306377
STARLINK-1522,46027,53.0554,0.0002049,15.06428201,545.7061410734605,548.5441134932207,1 46027U 20055A   25364.62857551 -.00004179  00000+0 -26158-3 0  9997,2 46027  53.0554  76.6452 0002049 115.5922 244.5279 15.06428201298475
STARLINK-1523,46028,53.056,0.0001057,15.06412764,546.4404331852147,547.9044436004915,1 46028U 20055B   25364.57698492  .00000899  00000+0  79201-4 0  9990,2 46028  53.0560  76.8781 0001057  77.4995 282.6112 15.06412764298481
STARLINK-1526,46029,53.0559,0.0001399,15.06435569,546.1337052086137,548.0713872336464,1 46029U 20055C   25364.63595487  .00019215  00000+0  13041-2 0  9998,2 46029  53.0559  76.6105 0001399  84.6904 275.4245 15.06435569298482
STARLINK-1555,46032,53.0566,0.0001379,15.06419194,546.1977342633345,548.1077291713418,1 46032U 20055F   25364.62121547  .00006733  00000+0  47022-3 0  9991,2 46032  53.0566  76.6771 0001379  96.6819 263.4327 15.06419194298483
STARLINK-1556,46033,53.0548,0.0001308,15.0639821,546.3112077269425,548.1228803448621,1 46033U 20055G   25364.60279530  .00004855  00000+0  34462-3 0  9993,2 46033  53.0548  76.7609 0001308  78.1689 281.9446 15.06398210298456
STARLINK-1557,46034,53.0565,0.0001232,15.0639735,546.3664758755604,548.0728837614679,1 46034U 20055H   25364.60648266  .00000957  00000+0  83158-4 0  9996,2 46034  53.0565  76.7441 0001232  88.9143 271.1987 15.06397350298455
STARLINK-1558,46035,53.0548,0.0001274,15.0642499,546.252688597544,548.0172478950535,1 46035U 20055J   25364.61383744  .00004539  00000+0  32317-3 0  9995,2 46035  53.0548  76.7132 0001274  75.7732 284.3399 15.06424990298485
STARLINK-1560,46036,53.0536,0.0001571,15.06415158,546.07713628088,548.2530662010895,1 46036U 20055K   25364.46641058  .00018586  00000+0  12628-2 0  9993,2 46036  53.0536  77.3756 0001571  74.2378 285.8785 15.06415158298461
STARLINK-1567,46038,53.0546,0.0001328,15.06445833,546.1514223215963,547.9907575902889,1 46038U 20055M   25364.67650358  .00014245  00000+0  97205-3 0  9994,2 46038  53.0546  76.4305 0001328  71.4632 288.6501 15.06445833298488
STARLINK-1569,46039,53.0547,0.0001508,15.06439131,546.0473051779154,548.1359541326192,1 46039U 20055N   25364.61753079  .00024703  00000+0  16697-2 0  9998,2 46039  53.0547  76.6960 0001508  84.6867 275.4294 15.06439131298471
STARLINK-1582,46043,53.0568,0.0001266,15.06416894,546.28303817291,548.0365233177936,1 46043U 20055S   25364.49220150 -.00000197  00000+0  56535-5 0  9998,2 46043  53.0568  77.2563 0001266  86.4840 273.6294 15.06416894298456
STARLINK-1591,46045,53.0555,0.0001515,15.06428362,546.075456719439,548.1738109944981,1 46045U 20055U   25364.65071000  .00022875  00000+0  15484-2 0  9997,2 46045  53.0555  76.5471 0001515  71.3883 288.7271 15.06428362298467
STARLINK-1524,46047,53.0544,0.0001378,15.06397545,546.2647681017888,548.1733962380349,1 46047U 20055W   25364.60371810  .00001917  00000+0  14756-3 0  9992,2 46047  53.0544  66.7556 0001378  81.1393 278.9752 15.06397545298614
STARLINK-1527,46048,53.0557,0.0001576,15.06426357,546.0393565052645,548.2222009091129,1 46048U 20055X   25364.60001925  .00012596  00000+0  86241-3 0  9993,2 46048  53.0557  66.7736 0001576  81.3648 278.7520 15.06426357298596
STARLINK-1540,46051,53.055,0.000131,15.06416356,546.2542155132578,548.0686437018157,1 46051U 20055AA  25364.43416105  .00018115  00000+0  12314-2 0  9990,2 46051  53.0550  67.5190 0001310  76.5247 283.5888 15.06416356298604
STARLINK-1541,46052,53.0557,0.0001673,15.06422707,545.9833659570022,548.3005642987346,1 46052U 20055AB  25364.55209682 -.00000340  00000+0 -39334-5 0  9991,2 46052  53.0557  66.9853 0001673 108.5744 251.5426 15.06422707298588
STARLINK-1543,46053,53.056,0.0001369,15.06367996,546.3615536794596,548.2577409714968,1 46053U 20055AC  25364.55583638 -.00006148  00000+0 -39453-3 0  9990,2 46053  53.0560  66.9725 0001369 105.0981 255.0160 15.06367996298614
STARLINK-1548,46054,53.056,0.0001241,15.06430572,546.2584366178662,547.9772848743032,1 46054U 20055AD  25364.56317539  .00011706  00000+0  80277-3 0  9991,2 46054  53.0560  66.9405 0001241  92.7965 267.3166 15.06430572298616
STARLINK-1554,46055,53.0579,0.0001335,15.06400638,546.2850687894143,548.1341363322981,1 46055U 20055AE  25364.54842722  .00000682  00000+0  64697-4 0  9997,2 46055  53.0579  67.0066 0001335  99.9873 260.1267 15.06400638298616
STARLINK-1564,46058,53.0564,0.0001932,15.06419558,545.813650373042,548.4895818943169,1 46058U 20055AH  25364.55952443  .00000475  00000+0  50799-4 0  9991,2 46058  53.0564  67.4178 0001932 105.2533 254.8670 15.06419558298606
STARLINK-1570,46059,53.0555,0.0001275,15.06463631,546.1335878753534,547.8995020293169,1 46059U 20055AJ  25364.45625823 -.00008958  00000+0 -58220-3 0  9992,2 46059  53.0555  67.4217 0001275  84.6335 275.4799 15.06463631298557
STARLINK-1572,46060,53.0543,0.000125,15.06426246,546.2654603814399,547.9967774111637,1 46060U 20055AK  25364.45258799  .00015121  00000+0  10311-2 0  9994,2 46060  53.0543  67.4370 0001250  75.7435 284.3693 15.06426246298565
STARLINK-1573,46061,53.056,0.0001439,15.06415206,546.1684031791692,548.161505081569,1 46061U 20055AL  25364.44890278  .00000950  00000+0  82639-4 0  9996,2 46061  53.0560  67.4894 0001439  91.7159 268.3994 15.06415206298599
